[
    {
        "Altitude(m)": 617710.6603932937,
        "Argument of Periapsis(deg)": 0.0,
        "Eccentricity": 0.0,
        "Inclination(deg)": 60.0,
        "Latitude(deg)": -41.1027162686887,
        "Longitude(deg)": 14.966750994840597,
        "Mean Anomaly(deg)": -49.09089999999992,
        "RAAN(deg)": 145.0,
        "Satellite Name": "Test1 657",
        "Satellite Number": 657,
        "Semi-Major Axis(m)": 6980739.136638005,
        "Time(s)": 0
    },
    {
        "Altitude(m)": 617517.9583900498,
        "Argument of Periapsis(deg)": 0.00010418945913296404,
        "Eccentricity": 0.0,
        "Inclination(deg)": 60.0,
        "Latitude(deg)": -40.63692201575893,
        "Longitude(deg)": 15.463543040758974,
        "Mean Anomaly(deg)": -48.470793854538066,
        "RAAN(deg)": 144.99957995086027,
        "Satellite Name": "Test1 657",
        "Satellite Number": 657,
        "Semi-Major Axis(m)": 6980739.136638005,
        "Time(s)": 10
    },
    {
        "Altitude(m)": 617324.2792863562,
        "Argument of Periapsis(deg)": 0.0002083789182659281,
        "Eccentricity": 0.0,
        "Inclination(deg)": 60.0,
        "Latitude(deg)": -40.16860245533094,
        "Longitude(deg)": 15.952907225441763,
        "Mean Anomaly(deg)": -47.85068770907629,
        "RAAN(deg)": 144.99915990172053,
        "Satellite Name": "Test1 657",
        "Satellite Number": 657,
        "Semi-Major Axis(m)": 6980739.136638005,
        "Time(s)": 20
    },
    {
        "Altitude(m)": 617129.6970632036,
        "Argument of Periapsis(deg)": 0.00031256837739889213,
        "Eccentricity": 0.0,
        "Inclination(deg)": 60.0,
        "Latitude(deg)": -39.69783071902434,
        "Longitude(deg)": 16.435028003577834,
        "Mean Anomaly(deg)": -47.230581563614436,
        "RAAN(deg)": 144.99873985258077,
        "Satellite Name": "Test1 657",
        "Satellite Number": 657,
        "Semi-Major Axis(m)": 6980739.136638005,
        "Time(s)": 30
    },
    {
        "Altitude(m)": 616934.2859503012,
        "Argument of Periapsis(deg)": 0.0004167578365318562,
        "Eccentricity": 0.0,
        "Inclination(deg)": 60.0,
        "Latitude(deg)": -39.22467771578776,
        "Longitude(deg)": 16.910086851592002,
        "Mean Anomaly(deg)": -46.61047541815266,
        "RAAN(deg)": 144.99831980344103,
        "Satellite Name": "Test1 657",
        "Satellite Number": 657,
        "Semi-Major Axis(m)": 6980739.136638005,
        "Time(s)": 40
    },
    {
        "Altitude(m)": 616738.120393629,
        "Argument of Periapsis(deg)": 0.0005209472956648203,
        "Eccentricity": 0.0,
        "Inclination(deg)": 60.0,
        "Latitude(deg)": -38.7492122042968,
        "Longitude(deg)": 17.37826124445342,
        "Mean Anomaly(deg)": -45.990369272690806,
        "RAAN(deg)": 144.9978997543013,
        "Satellite Name": "Test1 657",
        "Satellite Number": 657,
        "Semi-Major Axis(m)": 6980739.136638005,
        "Time(s)": 50
    },
    {
        "Altitude(m)": 616541.275022821,
        "Argument of Periapsis(deg)": 0.0006251367547977843,
        "Eccentricity": 0.0,
        "Inclination(deg)": 60.0,
        "Latitude(deg)": -38.27150086386538,
        "Longitude(deg)": 17.83972515623895,
        "Mean Anomaly(deg)": -45.37026312722898,
        "RAAN(deg)": 144.99747970516157,
        "Satellite Name": "Test1 657",
        "Satellite Number": 657,
        "Semi-Major Axis(m)": 6980739.136638005,
        "Time(s)": 60
    },
    {
        "Altitude(m)": 616343.8246185044,
        "Argument of Periapsis(deg)": 0.0007293262139307483,
        "Eccentricity": 0.0,
        "Inclination(deg)": 60.0,
        "Latitude(deg)": -37.79160836380207,
        "Longitude(deg)": 18.294649570451448,
        "Mean Anomaly(deg)": -44.75015698176713,
        "RAAN(deg)": 144.9970596560218,
        "Satellite Name": "Test1 657",
        "Satellite Number": 657,
        "Semi-Major Axis(m)": 6980739.136638005,
        "Time(s)": 70
    },
    {
        "Altitude(m)": 616145.8440795122,
        "Argument of Periapsis(deg)": 0.0008335156730637124,
        "Eccentricity": 0.0,
        "Inclination(deg)": 60.0,
        "Latitude(deg)": -37.30959743115982,
        "Longitude(deg)": 18.74320148617977,
        "Mean Anomaly(deg)": -44.1300508363053,
        "RAAN(deg)": 144.99663960688207,
        "Satellite Name": "Test1 657",
        "Satellite Number": 657,
        "Semi-Major Axis(m)": 6980739.136638005,
        "Time(s)": 80
    },
    {
        "Altitude(m)": 615947.4083900241,
        "Argument of Periapsis(deg)": 0.0009377051321966765,
        "Eccentricity": 0.0,
        "Inclination(deg)": 60.0,
        "Latitude(deg)": -36.825528916830955,
        "Longitude(deg)": 19.18554444488746,
        "Mean Anomaly(deg)": -43.50994469084345,
        "RAAN(deg)": 144.99621955774234,
        "Satellite Name": "Test1 657",
        "Satellite Number": 657,
        "Semi-Major Axis(m)": 6980739.136638005,
        "Time(s)": 90
    },
    {
        "Altitude(m)": 615748.5925866589,
        "Argument of Periapsis(deg)": 0.0010418945913296407,
        "Eccentricity": 0.0,
        "Inclination(deg)": 60.0,
        "Latitude(deg)": -36.33946185996112,
        "Longitude(deg)": 19.621839064079484,
        "Mean Anomaly(deg)": -42.88983854538162,
        "RAAN(deg)": 144.9957995086026,
        "Satellite Name": "Test1 657",
        "Satellite Number": 657,
        "Semi-Major Axis(m)": 6980739.136638005,
        "Time(s)": 100
    },
    {
        "Altitude(m)": 615549.4717255193,
        "Argument of Periapsis(deg)": 0.0011460840504626045,
        "Eccentricity": 0.0,
        "Inclination(deg)": 60.0,
        "Latitude(deg)": -35.851453550664395,
        "Longitude(deg)": 20.05224206416381,
        "Mean Anomaly(deg)": -42.26973239991987,
        "RAAN(deg)": 144.99537945946284,
        "Satellite Name": "Test1 657",
        "Satellite Number": 657,
        "Semi-Major Axis(m)": 6980739.136638005,
        "Time(s)": 110
    },
    {
        "Altitude(m)": 615350.1208492067,
        "Argument of Periapsis(deg)": 0.0012502735095955685,
        "Eccentricity": 0.0,
        "Inclination(deg)": 60.0,
        "Latitude(deg)": -35.36155959102416,
        "Longitude(deg)": 20.47690681351792,
        "Mean Anomaly(deg)": -41.649626254457935,
        "RAAN(deg)": 144.9949594103231,
        "Satellite Name": "Test1 657",
        "Satellite Number": 657,
        "Semi-Major Axis(m)": 6980739.136638005,
        "Time(s)": 120
    },
    {
        "Altitude(m)": 615150.6149538079,
        "Argument of Periapsis(deg)": 0.0013544629687285324,
        "Eccentricity": 0.0,
        "Inclination(deg)": 60.0,
        "Latitude(deg)": -34.869833954381065,
        "Longitude(deg)": 20.895983878207538,
        "Mean Anomaly(deg)": -41.02952010899619,
        "RAAN(deg)": 144.99453936118337,
        "Satellite Name": "Test1 657",
        "Satellite Number": 657,
        "Semi-Major Axis(m)": 6980739.136638005,
        "Time(s)": 130
    },
    {
        "Altitude(m)": 614951.0289559098,
        "Argument of Periapsis(deg)": 0.0014586524278614966,
        "Eccentricity": 0.0,
        "Inclination(deg)": 60.0,
        "Latitude(deg)": -34.376329042913625,
        "Longitude(deg)": 21.309620062873726,
        "Mean Anomaly(deg)": -40.40941396353436,
        "RAAN(deg)": 144.99411931204364,
        "Satellite Name": "Test1 657",
        "Satellite Number": 657,
        "Semi-Major Axis(m)": 6980739.136638005,
        "Time(s)": 140
    },
    {
        "Altitude(m)": 614751.4376595923,
        "Argument of Periapsis(deg)": 0.0015628418869944607,
        "Eccentricity": 0.0,
        "Inclination(deg)": 60.0,
        "Latitude(deg)": -33.88109574351987,
        "Longitude(deg)": 21.71795896796757,
        "Mean Anomaly(deg)": -39.78930781807251,
        "RAAN(deg)": 144.99369926290387,
        "Satellite Name": "Test1 657",
        "Satellite Number": 657,
        "Semi-Major Axis(m)": 6980739.136638005,
        "Time(s)": 150
    },
    {
        "Altitude(m)": 614551.9157234987,
        "Argument of Periapsis(deg)": 0.0016670313461274247,
        "Eccentricity": 0.0,
        "Inclination(deg)": 60.0,
        "Latitude(deg)": -33.38418348201691,
        "Longitude(deg)": 22.121141549953297,
        "Mean Anomaly(deg)": -39.16920167261068,
        "RAAN(deg)": 144.99327921376414,
        "Satellite Name": "Test1 657",
        "Satellite Number": 657,
        "Semi-Major Axis(m)": 6980739.136638005,
        "Time(s)": 160
    },
    {
        "Altitude(m)": 614352.53762791,
        "Argument of Periapsis(deg)": 0.0017712208052603888,
        "Eccentricity": 0.0,
        "Inclination(deg)": 60.0,
        "Latitude(deg)": -32.88564027568296,
        "Longitude(deg)": 22.51930517114238,
        "Mean Anomaly(deg)": -38.54909552714883,
        "RAAN(deg)": 144.9928591646244,
        "Satellite Name": "Test1 657",
        "Satellite Number": 657,
        "Semi-Major Axis(m)": 6980739.136638005,
        "Time(s)": 170
    },
    {
        "Altitude(m)": 614153.3776419115,
        "Argument of Periapsis(deg)": 0.001875410264393353,
        "Eccentricity": 0.0,
        "Inclination(deg)": 60.0,
        "Latitude(deg)": -32.3855127841621,
        "Longitude(deg)": 22.912584164485736,
        "Mean Anomaly(deg)": -37.928989381687,
        "RAAN(deg)": 144.99243911548467,
        "Satellite Name": "Test1 657",
        "Satellite Number": 657,
        "Semi-Major Axis(m)": 6980739.136638005,
        "Time(s)": 180
    },
    {
        "Altitude(m)": 613954.5097906266,
        "Argument of Periapsis(deg)": 0.0019795997235263173,
        "Eccentricity": 0.0,
        "Inclination(deg)": 60.0,
        "Latitude(deg)": -31.883846358761097,
        "Longitude(deg)": 23.301110400072822,
        "Mean Anomaly(deg)": -37.30888323622514,
        "RAAN(deg)": 144.99201906634488,
        "Satellite Name": "Test1 657",
        "Satellite Number": 657,
        "Semi-Major Axis(m)": 6980739.136638005,
        "Time(s)": 190
    }
]